ORBCOMM FM05 [-]        
1 25117U 97084F   23261.19397670  .00002310  00000+0  75019-3 0  9990
2 25117  45.0153 179.3412 0003215 286.7413  73.3084 14.41379193348423
ORBCOMM FM06 [+]        
1 25118U 97084G   23261.24438321  .00002313  00000+0  75216-3 0  9998
2 25118  45.0147 179.2481 0002745 303.6167 187.7891 14.41312621349345
ORBCOMM FM07 [-]        
1 25119U 97084H   23261.06113919  .00002566  00000+0  83052-3 0  9999
2 25119  45.0141 180.5504 0003407 270.7997  89.2462 14.41258928349318
ORBCOMM FM03 [-]        
1 25158U 98007B   23261.54483069  .00001526  00000+0  61759-3 0  9992
2 25158 107.9827 268.9825 0049790 280.7922  78.7614 14.31250396332719
ORBCOMM FM04 [+]        
1 25159U 98007C   23261.57635102  .00001354  00000+0  55166-3 0  9997
2 25159 107.9808 271.8266 0045285 278.7847  80.8165 14.31526718332886
ORBCOMM FM17 [-]        
1 25413U 98046A   23261.50045753  .00001351  00000+0  54740-3 0  9997
2 25413  44.9969  20.0192 0003037 238.6910 121.3639 14.32312040311666
ORBCOMM FM18 [-]        
1 25414U 98046B   23261.15828581  .00001502  00000+0  57410-3 0  9992
2 25414  44.9956 313.4613 0005557 293.0471  66.9790 14.34782957312502
ORBCOMM FM19 [+]        
1 25415U 98046C   23261.24825274  .00001439  00000+0  55343-3 0  9991
2 25415  44.9961 314.1597 0004638 281.8004 126.0857 14.34664171312480
